#dP2024  8 27  0  0  0.00000000      96 __u+U IGS20 FIT  IAC
## 2329 172800.00000000   900.00000000 60549 0.0000000000000
+  132   C01C02C03C04C05C06C07C08C09C10C11C12C13C14C16C19C20
+        C21C22C23C24C25C26C27C28C29C30C32C33C34C35C36C37C38
+        C39C40C41C42C43C44C45C59C60C62E02E03E04E05E06E07E08
+        E09E10E11E12E13E14E15E18E19E21E24E25E26E27E29E30E31
+        E33E34E36G01G02G03G04G05G06G07G08G09G10G11G12G13G14
+        G15G16G17G18G19G20G21G22G23G24G25G26G27G28G29G30G31
+        G32J02J03J04J07R02R03R04R05R06R07R08R09R10R11R12R13
+        R14R15R16R17R18R19R20R21R22R23R24R25R26  0  0  0  0
++        17 19 16 17 17  9  9  9  9  9  9  8  8  9  9  7  7
++         7  7  7  7  7  7  7  7  7  7  7  7  7  7  7  7  8
++         8  8  7  7  7  7  7 17 17 17  4  4  4  4  5  4  4
++         4  4  4  4  5  4  4  0  4  4  4  4  5  4  4  4  5
++         5  4  4  6  4  4  4  3  4  4  4  4  4  4  4  4  4
++         4  4  4  4  4  4  4  4  4  4  4  4  4  4  4  4  4
++         4 10 11 11 17  6  6  6  6 15  6  6  6 15  6  6 15
++         6  6  6  6  6  8  8  6  6 15  6  8  8  0  0  0  0
%c M  cc GPS ccc cccc cccc cccc cccc ccccc ccccc ccccc ccccc
%c cc cc ccc ccc cccc cccc cccc cccc ccccc ccccc ccccc ccccc
%f  0.0000000  0.000000000  0.00000000000  0.000000000000000
%f  0.0000000  0.000000000  0.00000000000  0.000000000000000
%i    0    0    0    0      0      0      0      0         0
%i    0    0    0    0      0      0      0      0         0
/* INFORMATION & ANALYSIS CENTER (IAC)            RAPID DATA
/* S/V CLOCKS ARE ALIGNED TO GNSS TIME                      
/* G:C1WC2W R:C1PC2P E:C1XC5X C:C2IC6I J:C1CC2S             
/* PCV:IGS20_2317 OL/AL:FES2004  NONE     YN ORB:CoN CLK:CoN
*  2024 08 27 18 30  0.00000000
PC01 -34337.692491  24473.332996   -724.809676    918.136567
PC02   4519.525722  41861.123978  -1975.291887 999999.999999
PC03 -14768.089855  39464.495089  -1008.617328    807.314765
PC04 -39673.166770  14353.812921   -409.883174   -746.900973
PC05  21890.256515  35989.060221  -1452.205084   -418.862755
PC06  -8685.113707  40469.081433  -7123.918866    722.405025
PC07  -6484.887909  27530.765837  31423.390040   -424.133113
PC08 -19417.885154  26461.372860 -26633.999585   -473.339221
PC09  -3202.119415  41587.467820   3309.284764   -243.071804
PC10   1759.317428  30027.885844  30081.307126   -147.741880
PC11  16250.164178   1732.966236 -22552.864143    733.582714
PC12  14666.851712  20783.567861 -11450.046539   -265.887071
PC13 -10907.571555  26938.756649 -30517.246486    436.385797
PC14  27274.591983   1154.301182   5938.627538   -129.338828
PC16 -10156.956768  39459.217261  -9753.409292   -760.149454
PC19 -23392.133097   5219.371865 -14260.612014   -929.708718
PC20 -27102.451871  -6376.244344   1608.004313   -851.449268
PC21  14657.066450  15316.536754 -18159.373339   -937.904662
PC22  -6003.875097  14606.734776 -23021.002910    105.302067
PC23  13170.198645 -23458.151701  -7396.369802   -822.542840
PC24  17602.460836   3279.982564  21390.064196    845.249861
PC25  21472.424312 -14676.013399  10078.524210    490.064667
PC26   3458.658093  18827.022203  20301.380003   -340.342865
PC27 -10802.994543 -25568.292631   2866.193541    360.721963
PC28    496.777944 -25109.120027 -12152.412545    278.921705
PC29 -13856.648684   8544.727741  22662.309709    327.512575
PC30 -17900.175619 -12782.166957  17173.675085   -180.886146
PC32 -14606.309385 -15236.658674  18250.151241   -715.282737
PC33  23460.954391  -5311.579352  14154.373542   -970.396814
PC34  18045.736545  11015.017744 -18220.338409    508.341811
PC35      9.191598  24903.935833  12550.014058    276.371882
PC36 -21747.739880  14554.967273  -9686.063123    170.217526
PC37  -3098.625136 -18856.100447 -20314.284761   -903.730354
PC38 -25913.575455  27883.284729 -18267.386781    175.838946
PC39 -11927.345179  36758.076179 -16498.133254     -9.675590
PC40 -10024.004256  21652.865068  34809.436035    -87.936330
PC41   7057.847679 -14389.373593  22889.838485   -918.384819
PC42  26714.248168   7394.434061  -3347.038565   -468.595774
PC43  14430.671883  -7541.403812 -22673.312479     83.765873
PC44  11756.787506  25149.243597  -2738.039799    575.864025
PC45 -13631.652876  23333.822192   7017.027068   -122.891878
PC59 -32280.247421  27079.662141  -1677.802348     -0.145282
PC60   7253.885431  41516.939394  -1512.743486     -0.097242
PC62 -39601.492305  14443.486931   1155.355479     -0.562731
PE02  11240.640369  13980.616963  23544.436447    154.663979
PE03  17026.107633  23424.114349  -6179.768210   -136.464059
PE04 -24004.727490 -11794.550439 -12674.167122    -18.568453
PE05    198.892902  20958.996121 -20905.086813   4778.919371
PE06 -22041.032338  -2728.158317 -19586.685361    -19.688311
PE07  17095.318411  -5906.904586  23433.332173   -138.862776
PE08  23964.297460  12583.630176  11993.001340   -326.010682
PE09 -17034.421458   5756.166173 -23513.968870   -568.126883
PE10 -17258.176284   6879.193342  23040.237095   -651.844984
PE11 -16429.956660  17733.302937  17068.033773   1892.355734
PE12 -15605.419007  -3819.844820  24855.181008  -1184.828391
PE13  16495.560786 -17226.343687 -17527.089489    -24.221746
PE14  -9882.086791 -20955.635137  -9035.287272    190.447489
PE15  15334.589344   4515.310221 -24908.266707   -123.510621
PE18      0.000000      0.000000      0.000000 999999.999999
PE19 -15574.254360 -23869.108187   7990.102197    526.333382
PE21  10324.057875 -17821.344384 -21255.851270   -613.478640
PE24 -26707.114684  11169.613851   6210.060696   -954.348136
PE25 -10783.931685  17798.287800  21060.178390      8.445949
PE26   7661.294447 -28581.922947    473.466260    553.950802
PE27  26588.901193 -11325.697374  -6378.950928   -437.250918
PE29   -460.563638 -21264.390420  20581.452091    -25.886743
PE30  26970.425234   1860.574078  12041.434033   -655.611728
PE31 -26977.115664  -1745.590774 -12045.064879    -33.919618
PE33  -4893.127232 -23558.168423  17231.973531     14.918297
PE34   5236.185387  23261.908468 -17556.125459   -130.915871
PE36  -8013.235730  28495.973503     65.861520   -275.062078
PG01 -14399.975394 -10571.138293 -20128.559998    211.566677
PG02 -13866.852556  15184.415812  17100.536282   -370.325769
PG03 -21397.453661  12944.335734  -8943.557028    516.213760
PG04 -12203.409451   9111.083398 -21755.021280    432.409458
PG05  25291.139363  -4120.566523  -7313.104463   -184.627744
PG06   6447.616740  19751.175650 -16418.987863     70.674797
PG07  -5636.709692  25688.254777    -58.494392    -45.550982
PG08 -20244.472232  -1014.797377  17269.140805    331.470707
PG09  -1258.763040  17477.331302 -20033.326170    331.721906
PG10  -8469.741553 -12634.153711  22018.679376   -106.682826
PG11  14000.699013   5854.514837 -21773.134086   -727.333637
PG12  23740.768411 -10271.144830  -6195.573844   -533.613628
PG13  20454.284749  10743.435014  13089.307490    673.235924
PG14   4131.718763  15025.282998  21550.550938    482.153539
PG15  20050.578289  -1686.113612  16907.414966    197.462136
PG16 -24714.963452  -1901.789255 -10463.552454   -197.018637
PG17  11547.358710  21788.321353  10063.968649    643.590121
PG18   6035.663760 -25741.350997     94.600290   -649.425765
PG19  17308.229522  20421.005820    968.778569    530.278379
PG20  20730.109098   2076.963653 -16318.448167    371.240402
PG21 -15175.829290   8711.069309  20068.615688    102.829204
PG22  12075.216771  12117.207548  20656.353415    -55.798538
PG23   5830.265556 -16311.516803  20094.102526    306.931351
PG24  14342.811358 -13533.520759  17162.289048   -486.705316
PG25  14601.784249 -16391.862892 -15105.601592    499.475363
PG26 -16792.722658  -8429.035665 -19063.194489     91.744095
PG27 -22319.484755 -11298.776615   9235.841865    -33.480906
PG28  -6278.497809 -21410.657191 -14418.458680   -388.978636
PG29   5687.772107 -15070.973298 -21140.031758   -581.543043
PG30   1884.936369  24616.151797   9582.388043   -332.284787
PG31 -12724.241617 -10535.369064 -20948.253168   -225.403107
PG32 -14211.883368 -20864.807895   8791.840585   -602.441650
PJ02 -31401.150907  23981.814016  19881.803269     -0.877130
PJ03 -28902.333350  26083.214748  21356.173740     -2.306537
PJ04 -27221.551518  20589.823744 -19785.642795     22.444649
PJ07 -25393.808801  33668.240196    -10.606858     -0.002398
PR02  23906.088362   8553.936569   2072.380593    -24.349162
PR03  18394.207151  -1684.704465  17601.446212    106.435469
PR04   3047.697292 -10299.381734  23159.734874    251.913638
PR05 -13915.362948 -13777.535075  16366.801937    136.755998
PR06 -24337.552693  -6930.653099  -3314.899730   -177.937705
PR07 -18076.710346   1925.712919 -17884.910700     89.679341
PR08  -2783.743324  10482.323763 -23032.401720     -6.393268
PR09 -16508.681524   1555.613103 -19328.028654    205.797924
PR10 -20891.881234  12522.550977  -7708.378485   -209.215872
PR11 -14519.800114  18269.790336  10289.382814     13.508849
PR12   2162.050043  12089.977531  22387.438678     44.140843
PR13  14825.896310    644.690834  20738.555090    -50.830322
PR14  20800.750934 -13732.822874   5495.866134     26.866885
PR15  13473.888871 -18202.927003 -11722.978680     76.432490
PR16  -1894.983563 -12096.646202 -22367.707872     28.628899
PR17   8740.844478  -9598.603748 -21938.384134    116.924366
PR18   2139.375601 -22726.714937 -11407.740191    159.132264
PR19  -4016.575709 -24979.927446   3185.382583   -289.170347
PR20 -10341.923780 -11071.852452  20538.612574   -118.270864
PR21  -8914.380155   8947.908142  22168.537089   -129.516819
PR22  -2343.757507  23220.667960  10317.784828     60.471152
PR23   5860.465559  24053.099512  -6169.872427   -131.055682
PR24  11297.123011   9992.239418 -20562.768975    -69.582816
PR25  -9285.777359   9730.711782  21685.501781   -101.015246
PR26  -4247.389768   9933.475152 -23091.614819     12.893645
EOF
